{"type": "FeatureCollection", "features": [{"type": "Feature", "properties": {"norad_id": 28054, "name": "DMSP 5D-3 F16 (USA 172)", "group": "weather", "lat": -67.54387190430138, "lon": 153.14843052992677, "alt_km": 852.1289801833791, "timestamp": "2025-12-04T07:39:35.816819+00:00", "meta": {"OBJECT_NAME": "DMSP 5D-3 F16 (USA 172)", "OBJECT_ID": "2003-048A", "EPOCH": "2025-12-03T22:18:37.497888", "MEAN_MOTION": 14.14419405, "ECCENTRICITY": 0.00068672, "INCLINATION": 99.0052, "RA_OF_ASC_NODE": 355.3171, "ARG_OF_PERICENTER": 347.7086, "MEAN_ANOMALY": 79.1467, "EPHEMERIS_TYPE": 0, "CLASSIFICATION_TYPE": "U", "NORAD_CAT_ID": 28054, "ELEMENT_SET_NO": 999, "REV_AT_EPOCH": 14188, "BSTAR": 0.00016796968, "MEAN_MOTION_DOT": 2.76e-06, "MEAN_MOTION_DDOT": 0}, "tle": {"line1": "1 28054U 03048A   25337.92960067  .00000276  00000+0  16797-3 0  9990", "line2": "2 28054  99.0052 355.3171 0006867 347.7086  79.1467 14.14419405141882"}}, "geometry": {"type": "Point", "coordinates": [153.14843052992677, -67.54387190430138]}}, {"type": "Feature", "properties": {"norad_id": 28912, "name": "METEOSAT-9 (MSG-2)", "group": "weather", "lat": 0.31379476051123995, "lon": -126.09492669949965, "alt_km": 35769.208134057415, "timestamp": "2025-12-04T07:39:35.816872+00:00", "meta": {"OBJECT_NAME": "METEOSAT-9 (MSG-2)", "OBJECT_ID": "2005-049B", "EPOCH": "2025-12-02T20:50:55.807872", "MEAN_MOTION": 1.00271253, "ECCENTRICITY": 0.00040042, "INCLINATION": 8.9157, "RA_OF_ASC_NODE": 56.0648, "ARG_OF_PERICENTER": 185.08, "MEAN_ANOMALY": 189.154, "EPHEMERIS_TYPE": 0, "CLASSIFICATION_TYPE": "U", "NORAD_CAT_ID": 28912, "ELEMENT_SET_NO": 999, "REV_AT_EPOCH": 503, "BSTAR": 0, "MEAN_MOTION_DOT": 1.39e-06, "MEAN_MOTION_DDOT": 0}, "tle": {"line1": "1 28912U 05049B   25336.86870148  .00000139  00000+0  00000+0 0  9992", "line2": "2 28912   8.9157  56.0648 0004004 185.0800 189.1540  1.00271253  5030"}}, "geometry": {"type": "Point", "coordinates": [-126.09492669949965, 0.31379476051123995]}}, {"type": "Feature", "properties": {"norad_id": 29522, "name": "DMSP 5D-3 F17 (USA 191)", "group": "weather", "lat": 4.9628204674099035, "lon": 164.64888159740917, "alt_km": 843.2878333693743, "timestamp": "2025-12-04T07:39:35.816889+00:00", "meta": {"OBJECT_NAME": "DMSP 5D-3 F17 (USA 191)", "OBJECT_ID": "2006-050A", "EPOCH": "2025-12-03T22:20:57.653376", "MEAN_MOTION": 14.14913792, "ECCENTRICITY": 0.00091686, "INCLINATION": 98.7394, "RA_OF_ASC_NODE": 343.5037, "ARG_OF_PERICENTER": 252.4546, "MEAN_ANOMALY": 107.5626, "EPHEMERIS_TYPE": 0, "CLASSIFICATION_TYPE": "U", "NORAD_CAT_ID": 29522, "ELEMENT_SET_NO": 999, "REV_AT_EPOCH": 98480, "BSTAR": 0.00020634785, "MEAN_MOTION_DOT": 3.55e-06, "MEAN_MOTION_DDOT": 0}, "tle": {"line1": "1 29522U 06050A   25337.93122284  .00000355  00000+0  20635-3 0  9993", "line2": "2 29522  98.7394 343.5037 0009168 252.4546 107.5626 14.14913792984806"}}, "geometry": {"type": "Point", "coordinates": [164.64888159740917, 4.9628204674099035]}}, {"type": "Feature", "properties": {"norad_id": 32958, "name": "FENGYUN 3A", "group": "weather", "lat": 68.26774467273282, "lon": 120.52554959505974, "alt_km": 824.4735676879809, "timestamp": "2025-12-04T07:39:35.816901+00:00", "meta": {"OBJECT_NAME": "FENGYUN 3A", "OBJECT_ID": "2008-026A", "EPOCH": "2025-12-03T17:36:37.752192", "MEAN_MOTION": 14.19509764, "ECCENTRICITY": 0.00083403, "INCLINATION": 98.6682, "RA_OF_ASC_NODE": 277.4507, "ARG_OF_PERICENTER": 338.2034, "MEAN_ANOMALY": 21.8787, "EPHEMERIS_TYPE": 0, "CLASSIFICATION_TYPE": "U", "NORAD_CAT_ID": 32958, "ELEMENT_SET_NO": 999, "REV_AT_EPOCH": 90767, "BSTAR": 0.0001067732, "MEAN_MOTION_DOT": 1.82e-06, "MEAN_MOTION_DDOT": 0}, "tle": {"line1": "1 32958U 08026A   25337.73377028  .00000182  00000+0  10677-3 0  9994", "line2": "2 32958  98.6682 277.4507 0008340 338.2034  21.8787 14.19509764907676"}}, "geometry": {"type": "Point", "coordinates": [120.52554959505974, 68.26774467273282]}}, {"type": "Feature", "properties": {"norad_id": 35491, "name": "GOES 14", "group": "weather", "lat": -0.08980263165157316, "lon": 79.92202641360043, "alt_km": 35802.06218777328, "timestamp": "2025-12-04T07:39:35.816914+00:00", "meta": {"OBJECT_NAME": "GOES 14", "OBJECT_ID": "2009-033A", "EPOCH": "2025-12-03T16:39:52.029216", "MEAN_MOTION": 1.00272658, "ECCENTRICITY": 0.00041756, "INCLINATION": 1.174, "RA_OF_ASC_NODE": 85.5139, "ARG_OF_PERICENTER": 150.7142, "MEAN_ANOMALY": 338.1823, "EPHEMERIS_TYPE": 0, "CLASSIFICATION_TYPE": "U", "NORAD_CAT_ID": 35491, "ELEMENT_SET_NO": 999, "REV_AT_EPOCH": 463, "BSTAR": 0, "MEAN_MOTION_DOT": -5e-07, "MEAN_MOTION_DDOT": 0}, "tle": {"line1": "1 35491U 09033A   25337.69435219 -.00000050  00000+0  00000+0 0  9990", "line2": "2 35491   1.1740  85.5139 0004175 150.7142 338.1823  1.00272658  4637"}}, "geometry": {"type": "Point", "coordinates": [79.92202641360043, -0.08980263165157316]}}, {"type": "Feature", "properties": {"norad_id": 35951, "name": "DMSP 5D-3 F18 (USA 210)", "group": "weather", "lat": 45.96278502206013, "lon": -54.544667078773124, "alt_km": 832.1532311899446, "timestamp": "2025-12-04T07:39:35.816925+00:00", "meta": {"OBJECT_NAME": "DMSP 5D-3 F18 (USA 210)", "OBJECT_ID": "2009-057A", "EPOCH": "2025-12-03T21:15:22.332096", "MEAN_MOTION": 14.1476145, "ECCENTRICITY": 0.00121142, "INCLINATION": 98.8824, "RA_OF_ASC_NODE": 314.3312, "ARG_OF_PERICENTER": 85.7716, "MEAN_ANOMALY": 274.4841, "EPHEMERIS_TYPE": 0, "CLASSIFICATION_TYPE": "U", "NORAD_CAT_ID": 35951, "ELEMENT_SET_NO": 999, "REV_AT_EPOCH": 83197, "BSTAR": 0.00026770209, "MEAN_MOTION_DOT": 4.72e-06, "MEAN_MOTION_DDOT": 0}, "tle": {"line1": "1 35951U 09057A   25337.88567514  .00000472  00000+0  26770-3 0  9995", "line2": "2 35951  98.8824 314.3312 0012114  85.7716 274.4841 14.14761450831975"}}, "geometry": {"type": "Point", "coordinates": [-54.544667078773124, 45.96278502206013]}}, {"type": "Feature", "properties": {"norad_id": 36411, "name": "EWS-G2 (GOES 15)", "group": "weather", "lat": 0.19574621858895078, "lon": -110.24345185718018, "alt_km": 35761.91249087796, "timestamp": "2025-12-04T07:39:35.816937+00:00", "meta": {"OBJECT_NAME": "EWS-G2 (GOES 15)", "OBJECT_ID": "2010-008A", "EPOCH": "2025-12-03T20:07:48.027648", "MEAN_MOTION": 1.00267792, "ECCENTRICITY": 0.0005988, "INCLINATION": 0.7902, "RA_OF_ASC_NODE": 86.0551, "ARG_OF_PERICENTER": 169.9666, "MEAN_ANOMALY": 180.3456, "EPHEMERIS_TYPE": 0, "CLASSIFICATION_TYPE": "U", "NORAD_CAT_ID": 36411, "ELEMENT_SET_NO": 999, "REV_AT_EPOCH": 5767, "BSTAR": 0, "MEAN_MOTION_DOT": 5.5e-07, "MEAN_MOTION_DDOT": 0}, "tle": {"line1": "1 36411U 10008A   25337.83875032  .00000055  00000+0  00000+0 0  9998", "line2": "2 36411   0.7902  86.0551 0005988 169.9666 180.3456  1.00267792 57679"}}, "geometry": {"type": "Point", "coordinates": [-110.24345185718018, 0.19574621858895078]}}, {"type": "Feature", "properties": {"norad_id": 36744, "name": "COMS 1", "group": "weather", "lat": -3.68382237436553, "lon": -43.61649703644811, "alt_km": 35784.39350693532, "timestamp": "2025-12-04T07:39:35.816948+00:00", "meta": {"OBJECT_NAME": "COMS 1", "OBJECT_ID": "2010-032A", "EPOCH": "2025-12-03T17:35:32.728416", "MEAN_MOTION": 1.00269913, "ECCENTRICITY": 0.0001111, "INCLINATION": 4.318, "RA_OF_ASC_NODE": 78.097, "ARG_OF_PERICENTER": 184.7227, "MEAN_ANOMALY": 202.0533, "EPHEMERIS_TYPE": 0, "CLASSIFICATION_TYPE": "U", "NORAD_CAT_ID": 36744, "ELEMENT_SET_NO": 999, "REV_AT_EPOCH": 4913, "BSTAR": 0, "MEAN_MOTION_DOT": -3.29e-06, "MEAN_MOTION_DDOT": 0}, "tle": {"line1": "1 36744U 10032A   25337.73301769 -.00000329  00000+0  00000+0 0  9999", "line2": "2 36744   4.3180  78.0970 0001111 184.7227 202.0533  1.00269913 49131"}}, "geometry": {"type": "Point", "coordinates": [-43.61649703644811, -3.68382237436553]}}, {"type": "Feature", "properties": {"norad_id": 37214, "name": "FENGYUN 3B", "group": "weather", "lat": 10.349114694417933, "lon": 16.58026181106978, "alt_km": 828.5903286606826, "timestamp": "2025-12-04T07:39:35.816959+00:00", "meta": {"OBJECT_NAME": "FENGYUN 3B", "OBJECT_ID": "2010-059A", "EPOCH": "2025-12-03T23:40:28.257024", "MEAN_MOTION": 14.14786033, "ECCENTRICITY": 0.00224241, "INCLINATION": 98.9921, "RA_OF_ASC_NODE": 17.9022, "ARG_OF_PERICENTER": 22.432, "MEAN_ANOMALY": 94.4995, "EPHEMERIS_TYPE": 0, "CLASSIFICATION_TYPE": "U", "NORAD_CAT_ID": 37214, "ELEMENT_SET_NO": 999, "REV_AT_EPOCH": 77982, "BSTAR": 0.00013251455, "MEAN_MOTION_DOT": 2.11e-06, "MEAN_MOTION_DDOT": 0}, "tle": {"line1": "1 37214U 10059A   25337.98643816  .00000211  00000+0  13251-3 0  9995", "line2": "2 37214  98.9921  17.9022 0022424  22.4320  94.4995 14.14786033779825"}}, "geometry": {"type": "Point", "coordinates": [16.58026181106978, 10.349114694417933]}}, {"type": "Feature", "properties": {"norad_id": 37849, "name": "SUOMI NPP", "group": "weather", "lat": 66.8576640369675, "lon": -105.45086516036868, "alt_km": 819.9091679857574, "timestamp": "2025-12-04T07:39:35.816969+00:00", "meta": {"OBJECT_NAME": "SUOMI NPP", "OBJECT_ID": "2011-061A", "EPOCH": "2025-12-03T22:52:48.067968", "MEAN_MOTION": 14.19510314, "ECCENTRICITY": 0.00019199, "INCLINATION": 98.776, "RA_OF_ASC_NODE": 275.3746, "ARG_OF_PERICENTER": 136.0813, "MEAN_ANOMALY": 224.0516, "EPHEMERIS_TYPE": 0, "CLASSIFICATION_TYPE": "U", "NORAD_CAT_ID": 37849, "ELEMENT_SET_NO": 999, "REV_AT_EPOCH": 73074, "BSTAR": 0.00011408126, "MEAN_MOTION_DOT": 1.96e-06, "MEAN_MOTION_DDOT": 0}, "tle": {"line1": "1 37849U 11061A   25337.95333412  .00000196  00000+0  11408-3 0  9992", "line2": "2 37849  98.7760 275.3746 0001919 136.0813 224.0516 14.19510314730746"}}, "geometry": {"type": "Point", "coordinates": [-105.45086516036868, 66.8576640369675]}}]}